[{"OBJECT_NAME":"GEOSCAN 3 (RS92S3)","OBJECT_ID":"2025-155T","EPOCH":"2026-03-09T22:52:10.587648","MEAN_MOTION":15.31696739,"ECCENTRICITY":0.00068078,"INCLINATION":97.4455,"RA_OF_ASC_NODE":37.9971,"ARG_OF_PERICENTER":154.1387,"MEAN_ANOMALY":206.0196,"EPHEMERIS_TYPE":0,"CLASSIFICATION_TYPE":"U","NORAD_CAT_ID":64893,"ELEMENT_SET_NO":999,"REV_AT_EPOCH":6564,"BSTAR":0.00078414081,"MEAN_MOTION_DOT":0.00023985,"MEAN_MOTION_DDOT":0},{"OBJECT_NAME":"STARLINK-35143","OBJECT_ID":"2025-195AD","EPOCH":"2026-03-09T22:06:52.919712","MEAN_MOTION":15.30187095,"ECCENTRICITY":0.00010298,"INCLINATION":53.1596,"RA_OF_ASC_NODE":256.7631,"ARG_OF_PERICENTER":81.0421,"MEAN_ANOMALY":279.0696,"EPHEMERIS_TYPE":0,"CLASSIFICATION_TYPE":"U","NORAD_CAT_ID":65485,"ELEMENT_SET_NO":999,"REV_AT_EPOCH":3001,"BSTAR":0.0005235435,"MEAN_MOTION_DOT":0.00015172,"MEAN_MOTION_DDOT":0}]
